{"type": "FeatureCollection", "features": [ {"type": "Feature", "properties": {"norad_id": 66989, "name": "CZ-4B R/B", "group": "last-30-days", "lat": -2.1670796903250595, "lon": 66.99797287302131, "alt_km": 296.0305353691738, "timestamp": "2025-12-26T08:37:53.293648+00:00", "meta": {"OBJECT_NAME": "CZ-4B R/B", "OBJECT_ID": "2025-289B", "EPOCH": "2025-12-26T04:03:11.554272", "MEAN_MOTION": 15.70530395, "ECCENTRICITY": 0.0138648, "INCLINATION": 97.5229, "RA_OF_ASC_NODE": 66.5061, "ARG_OF_PERICENTER": 311.9288, "MEAN_ANOMALY": 47.0219, "EPHEMERIS_TYPE": 0, "CLASSIFICATION_TYPE": "U", "NORAD_CAT_ID": 66989, "ELEMENT_SET_NO": 999, "REV_AT_EPOCH": 267, "BSTAR": 0.00057014, "MEAN_MOTION_DOT": 0.00123733, "MEAN_MOTION_DDOT": 6.7414e-06}, "tle": {"line1": "1 66989U 25289B   25360.16888373  .00123733  67414-5  57014-3 0  9990", "line2": "2 66989  97.5229  66.5061 0138648 311.9288  47.0219 15.70530395  2676"}}, "geometry": {"type": "Point", "coordinates": [66.99797287302131, -2.1670796903250595]}}, {"type": "Feature", "properties": {"norad_id": 66990, "name": "TJS-22", "group": "last-30-days", "lat": 0.18602227207402383, "lon": -68.97069678802242, "alt_km": 35772.84708280106, "timestamp": "2025-12-26T08:37:53.293660+00:00", "meta": {"OBJECT_NAME": "TJS-22", "OBJECT_ID": "2025-290A", "EPOCH": "2025-12-25T08:20:17.431872", "MEAN_MOTION": 1.00271568, "ECCENTRICITY": 0.0003387, "INCLINATION": 1.9567, "RA_OF_ASC_NODE": 285.0409, "ARG_OF_PERICENTER": 343.2156, "MEAN_ANOMALY": 17.3747, "EPHEMERIS_TYPE": 0, "CLASSIFICATION_TYPE": "U", "NORAD_CAT_ID": 66990, "ELEMENT_SET_NO": 999, "REV_AT_EPOCH": 28, "BSTAR": 0, "MEAN_MOTION_DOT": 1.5e-07, "MEAN_MOTION_DDOT": 0}, "tle": {"line1": "1 66990U 25290A   25359.34742398  .00000015  00000+0  00000+0 0  9996", "line2": "2 66990   1.9567 285.0409 0003387 343.2156  17.3747  1.00271568   282"}}, "geometry": {"type": "Point", "coordinates": [-68.97069678802242, 0.18602227207402383]}}, {"type": "Feature", "properties": {"norad_id": 66991, "name": "CZ-3B R/B", "group": "last-30-days", "lat": 24.12453889762859, "lon": -8.000708370292585, "alt_km": 14781.08940002491, "timestamp": "2025-12-26T08:37:53.293675+00:00", "meta": {"OBJECT_NAME": "CZ-3B R/B", "OBJECT_ID": "2025-290B", "EPOCH": "2025-12-15T17:23:33.043200", "MEAN_MOTION": 2.38388611, "ECCENTRICITY": 0.7240884, "INCLINATION": 28.4636, "RA_OF_ASC_NODE": 300.4666, "ARG_OF_PERICENTER": 182.7002, "MEAN_ANOMALY": 168.625, "EPHEMERIS_TYPE": 0, "CLASSIFICATION_TYPE": "U", "NORAD_CAT_ID": 66991, "ELEMENT_SET_NO": 999, "REV_AT_EPOCH": 16, "BSTAR": 0.00075879, "MEAN_MOTION_DOT": 0.00057911, "MEAN_MOTION_DDOT": -2.0514e-07}, "tle": {"line1": "1 66991U 25290B   25349.72468800  .00057911 -20514-6  75879-3 0  9998", "line2": "2 66991  28.4636 300.4666 7240884 182.7002 168.6250  2.38388611   165"}}, "geometry": {"type": "Point", "coordinates": [-8.000708370292585, 24.12453889762859]}}, {"type": "Feature", "properties": {"norad_id": 66993, "name": "2025-292A", "group": "last-30-days", "lat": -77.03763347952184, "lon": 108.5009415737829, "alt_km": 554.5317979905822, "timestamp": "2025-12-26T08:37:53.293685+00:00", "meta": {"OBJECT_NAME": "2025-292A", "OBJECT_ID": "2025-292A", "EPOCH": "2025-12-26T02:36:00.232128", "MEAN_MOTION": 15.0459415, "ECCENTRICITY": 0.0014697, "INCLINATION": 97.6492, "RA_OF_ASC_NODE": 72.5284, "ARG_OF_PERICENTER": 224.3532, "MEAN_ANOMALY": 135.6518, "EPHEMERIS_TYPE": 0, "CLASSIFICATION_TYPE": "U", "NORAD_CAT_ID": 66993, "ELEMENT_SET_NO": 999, "REV_AT_EPOCH": 240, "BSTAR": 0.0003039, "MEAN_MOTION_DOT": 4.213e-05, "MEAN_MOTION_DDOT": 0}, "tle": {"line1": "1 66993U 25292A   25360.10833602  .00004213  00000+0  30390-3 0  9999", "line2": "2 66993  97.6492  72.5284 0014697 224.3532 135.6518 15.04594150  2407"}}, "geometry": {"type": "Point", "coordinates": [108.5009415737829, -77.03763347952184]}}, {"type": "Feature", "properties": {"norad_id": 66994, "name": "2025-292B", "group": "last-30-days", "lat": -74.8521316527686, "lon": 102.54911399892137, "alt_km": 554.7863842603601, "timestamp": "2025-12-26T08:37:53.293695+00:00", "meta": {"OBJECT_NAME": "2025-292B", "OBJECT_ID": "2025-292B", "EPOCH": "2025-12-26T02:35:19.114368", "MEAN_MOTION": 15.04644108, "ECCENTRICITY": 0.0014484, "INCLINATION": 97.6502, "RA_OF_ASC_NODE": 72.5307, "ARG_OF_PERICENTER": 224.6876, "MEAN_ANOMALY": 135.3184, "EPHEMERIS_TYPE": 0, "CLASSIFICATION_TYPE": "U", "NORAD_CAT_ID": 66994, "ELEMENT_SET_NO": 999, "REV_AT_EPOCH": 240, "BSTAR": 0.00034591, "MEAN_MOTION_DOT": 4.811e-05, "MEAN_MOTION_DDOT": 0}, "tle": {"line1": "1 66994U 25292B   25360.10786012  .00004811  00000+0  34591-3 0  9993", "line2": "2 66994  97.6502  72.5307 0014484 224.6876 135.3184 15.04644108  2409"}}, "geometry": {"type": "Point", "coordinates": [102.54911399892137, -74.8521316527686]}}, {"type": "Feature", "properties": {"norad_id": 66995, "name": "2025-292C", "group": "last-30-days", "lat": -73.87197560457962, "lon": 100.47515939087059, "alt_km": 554.720639218739, "timestamp": "2025-12-26T08:37:53.293707+00:00", "meta": {"OBJECT_NAME": "2025-292C", "OBJECT_ID": "2025-292C", "EPOCH": "2025-12-25T05:50:07.257120", "MEAN_MOTION": 15.04668363, "ECCENTRICITY": 0.0014688, "INCLINATION": 97.6495, "RA_OF_ASC_NODE": 71.6733, "ARG_OF_PERICENTER": 227.9665, "MEAN_ANOMALY": 132.0312, "EPHEMERIS_TYPE": 0, "CLASSIFICATION_TYPE": "U", "NORAD_CAT_ID": 66995, "ELEMENT_SET_NO": 999, "REV_AT_EPOCH": 227, "BSTAR": 0.00041226, "MEAN_MOTION_DOT": 5.751e-05, "MEAN_MOTION_DDOT": 0}, "tle": {"line1": "1 66995U 25292C   25359.24313955  .00005751  00000+0  41226-3 0  9996", "line2": "2 66995  97.6495  71.6733 0014688 227.9665 132.0312 15.04668363  2273"}}, "geometry": {"type": "Point", "coordinates": [100.47515939087059, -73.87197560457962]}}, {"type": "Feature", "properties": {"norad_id": 66996, "name": "2025-292D", "group": "last-30-days", "lat": -72.11206847095718, "lon": 97.38543726310596, "alt_km": 554.9180339290269, "timestamp": "2025-12-26T08:37:53.293717+00:00", "meta": {"OBJECT_NAME": "2025-292D", "OBJECT_ID": "2025-292D", "EPOCH": "2025-12-25T05:49:36.025248", "MEAN_MOTION": 15.04678565, "ECCENTRICITY": 0.0013797, "INCLINATION": 97.6491, "RA_OF_ASC_NODE": 71.6729, "ARG_OF_PERICENTER": 230.5158, "MEAN_ANOMALY": 129.4848, "EPHEMERIS_TYPE": 0, "CLASSIFICATION_TYPE": "U", "NORAD_CAT_ID": 66996, "ELEMENT_SET_NO": 999, "REV_AT_EPOCH": 227, "BSTAR": 0.00027339, "MEAN_MOTION_DOT": 3.792e-05, "MEAN_MOTION_DDOT": 0}, "tle": {"line1": "1 66996U 25292D   25359.24277807  .00003792  00000+0  27339-3 0  9994", "line2": "2 66996  97.6491  71.6729 0013797 230.5158 129.4848 15.04678565  2271"}}, "geometry": {"type": "Point", "coordinates": [97.38543726310596, -72.11206847095718]}}, {"type": "Feature", "properties": {"norad_id": 66997, "name": "2025-292E", "group": "last-30-days", "lat": -67.60601563014465, "lon": 91.82530362225667, "alt_km": 555.0095350513811, "timestamp": "2025-12-26T08:37:53.293727+00:00", "meta": {"OBJECT_NAME": "2025-292E", "OBJECT_ID": "2025-292E", "EPOCH": "2025-12-26T04:08:58.400160", "MEAN_MOTION": 15.04778465, "ECCENTRICITY": 0.0014288, "INCLINATION": 97.6509, "RA_OF_ASC_NODE": 72.5998, "ARG_OF_PERICENTER": 228.3633, "MEAN_ANOMALY": 131.637, "EPHEMERIS_TYPE": 0, "CLASSIFICATION_TYPE": "U", "NORAD_CAT_ID": 66997, "ELEMENT_SET_NO": 999, "REV_AT_EPOCH": 240, "BSTAR": 0.00031921, "MEAN_MOTION_DOT": 4.451e-05, "MEAN_MOTION_DDOT": 0}, "tle": {"line1": "1 66997U 25292E   25360.17289815  .00004451  00000+0  31921-3 0  9996", "line2": "2 66997  97.6509  72.5998 0014288 228.3633 131.6370 15.04778465  2409"}}, "geometry": {"type": "Point", "coordinates": [91.82530362225667, -67.60601563014465]}}, {"type": "Feature", "properties": {"norad_id": 66998, "name": "2025-292F", "group": "last-30-days", "lat": -58.446493762264055, "lon": 85.44059315633656, "alt_km": 555.4583582845726, "timestamp": "2025-12-26T08:37:53.293737+00:00", "meta": {"OBJECT_NAME": "2025-292F", "OBJECT_ID": "2025-292F", "EPOCH": "2025-12-26T04:06:27.118944", "MEAN_MOTION": 15.04963634, "ECCENTRICITY": 0.0015408, "INCLINATION": 97.6529, "RA_OF_ASC_NODE": 72.6058, "ARG_OF_PERICENTER": 229.2623, "MEAN_ANOMALY": 130.7266, "EPHEMERIS_TYPE": 0, "CLASSIFICATION_TYPE": "U", "NORAD_CAT_ID": 66998, "ELEMENT_SET_NO": 999, "REV_AT_EPOCH": 241, "BSTAR": 0.00042219, "MEAN_MOTION_DOT": 5.939e-05, "MEAN_MOTION_DDOT": 0}, "tle": {"line1": "1 66998U 25292F   25360.17114721  .00005939  00000+0  42219-3 0  9994", "line2": "2 66998  97.6529  72.6058 0015408 229.2623 130.7266 15.04963634  2413"}}, "geometry": {"type": "Point", "coordinates": [85.44059315633656, -58.446493762264055]}}, {"type": "Feature", "properties": {"norad_id": 66999, "name": "2025-292G", "group": "last-30-days", "lat": -54.86674285546287, "lon": 83.81308984417858, "alt_km": 555.5982308213133, "timestamp": "2025-12-26T08:37:53.293747+00:00", "meta": {"OBJECT_NAME": "2025-292G", "OBJECT_ID": "2025-292G", "EPOCH": "2025-12-26T04:05:28.772160", "MEAN_MOTION": 15.05027993, "ECCENTRICITY": 0.001492, "INCLINATION": 97.6538, "RA_OF_ASC_NODE": 72.6083, "ARG_OF_PERICENTER": 231.176, "MEAN_ANOMALY": 128.8134, "EPHEMERIS_TYPE": 0, "CLASSIFICATION_TYPE": "U", "NORAD_CAT_ID": 66999, "ELEMENT_SET_NO": 999, "REV_AT_EPOCH": 241, "BSTAR": 0.00042687, "MEAN_MOTION_DOT": 6.015e-05, "MEAN_MOTION_DDOT": 0}, "tle": {"line1": "1 66999U 25292G   25360.17047190  .00006015  00000+0  42687-3 0  9995", "line2": "2 66999  97.6538  72.6083 0014920 231.1760 128.8134 15.05027993  2416"}}, "geometry": {"type": "Point", "coordinates": [83.81308984417858, -54.86674285546287]}}]}